STARLINK-1837
1 17128C 20088G   21326.09794406  .00001827  00000-0  12245-3 0  3262
2 17128  53.0537 123.2909 0002898 190.6596 205.5219 15.06391179    13
